{"type": "FeatureCollection", "features": [ {"type": "Feature", "properties": {"norad_id": 66540, "name": "STARLINK-35818", "group": "last-30-days", "lat": -38.741924492954084, "lon": -41.088096997820074, "alt_km": 397.42705320564437, "timestamp": "2025-12-08T08:58:59.557044+00:00", "meta": {"OBJECT_NAME": "STARLINK-35818", "OBJECT_ID": "2025-265AA", "EPOCH": "2025-12-07T22:00:03.000096", "MEAN_MOTION": 15.59423631, "ECCENTRICITY": 0.00013013, "INCLINATION": 43.0005, "RA_OF_ASC_NODE": 82.189, "ARG_OF_PERICENTER": 280.0607, "MEAN_ANOMALY": 276.2212, "EPHEMERIS_TYPE": 0, "CLASSIFICATION_TYPE": "U", "NORAD_CAT_ID": 66540, "ELEMENT_SET_NO": 999, "REV_AT_EPOCH": 422, "BSTAR": -0.028523398, "MEAN_MOTION_DOT": -0.02029645, "MEAN_MOTION_DDOT": 0}, "tle": {"line1": "1 66540U 25265AA  25341.91670139 -.02029645  00000+0 -28523-1 0  9992", "line2": "2 66540  43.0005  82.1890 0001301 280.0607 276.2212 15.59423631  4220"}}, "geometry": {"type": "Point", "coordinates": [-41.088096997820074, -38.741924492954084]}}, {"type": "Feature", "properties": {"norad_id": 66541, "name": "STARLINK-35796", "group": "last-30-days", "lat": -39.38391079984274, "lon": -38.76575959178069, "alt_km": 397.4708169927171, "timestamp": "2025-12-08T08:58:59.557054+00:00", "meta": {"OBJECT_NAME": "STARLINK-35796", "OBJECT_ID": "2025-265AB", "EPOCH": "2025-12-07T22:00:03.000096", "MEAN_MOTION": 15.59423959, "ECCENTRICITY": 0.00011658, "INCLINATION": 43.0006, "RA_OF_ASC_NODE": 82.184, "ARG_OF_PERICENTER": 277.1673, "MEAN_ANOMALY": 281.0313, "EPHEMERIS_TYPE": 0, "CLASSIFICATION_TYPE": "U", "NORAD_CAT_ID": 66541, "ELEMENT_SET_NO": 999, "REV_AT_EPOCH": 422, "BSTAR": -0.028507927, "MEAN_MOTION_DOT": -0.02028607, "MEAN_MOTION_DDOT": 0}, "tle": {"line1": "1 66541U 25265AB  25341.91670139 -.02028607  00000+0 -28508-1 0  9993", "line2": "2 66541  43.0006  82.1840 0001165 277.1673 281.0313 15.59423959  4224"}}, "geometry": {"type": "Point", "coordinates": [-38.76575959178069, -39.38391079984274]}}, {"type": "Feature", "properties": {"norad_id": 66542, "name": "STARLINK-35833", "group": "last-30-days", "lat": -39.97708862595322, "lon": -36.40714465120527, "alt_km": 397.4934823824833, "timestamp": "2025-12-08T08:58:59.557066+00:00", "meta": {"OBJECT_NAME": "STARLINK-35833", "OBJECT_ID": "2025-265AC", "EPOCH": "2025-12-07T22:00:03.000096", "MEAN_MOTION": 15.59423266, "ECCENTRICITY": 0.00011946, "INCLINATION": 43.0005, "RA_OF_ASC_NODE": 82.1796, "ARG_OF_PERICENTER": 279.8726, "MEAN_ANOMALY": 280.2423, "EPHEMERIS_TYPE": 0, "CLASSIFICATION_TYPE": "U", "NORAD_CAT_ID": 66542, "ELEMENT_SET_NO": 999, "REV_AT_EPOCH": 422, "BSTAR": -0.028489533, "MEAN_MOTION_DOT": -0.02027438, "MEAN_MOTION_DDOT": 0}, "tle": {"line1": "1 66542U 25265AC  25341.91670139 -.02027438  00000+0 -28490-1 0  9995", "line2": "2 66542  43.0005  82.1796 0001194 279.8726 280.2423 15.59423266  4228"}}, "geometry": {"type": "Point", "coordinates": [-36.40714465120527, -39.97708862595322]}}, {"type": "Feature", "properties": {"norad_id": 66543, "name": "STARLINK-35315", "group": "last-30-days", "lat": -40.52220738217917, "lon": -34.00733895251679, "alt_km": 397.4520284582495, "timestamp": "2025-12-08T08:58:59.557099+00:00", "meta": {"OBJECT_NAME": "STARLINK-35315", "OBJECT_ID": "2025-265AD", "EPOCH": "2025-12-07T22:00:03.000096", "MEAN_MOTION": 15.59421697, "ECCENTRICITY": 0.00012531, "INCLINATION": 43.0006, "RA_OF_ASC_NODE": 82.1742, "ARG_OF_PERICENTER": 279.2726, "MEAN_ANOMALY": 282.7597, "EPHEMERIS_TYPE": 0, "CLASSIFICATION_TYPE": "U", "NORAD_CAT_ID": 66543, "ELEMENT_SET_NO": 999, "REV_AT_EPOCH": 411, "BSTAR": -0.028446255, "MEAN_MOTION_DOT": -0.02024684, "MEAN_MOTION_DDOT": 0}, "tle": {"line1": "1 66543U 25265AD  25341.91670139 -.02024684  00000+0 -28446-1 0  9997", "line2": "2 66543  43.0006  82.1742 0001253 279.2726 282.7597 15.59421697  4114"}}, "geometry": {"type": "Point", "coordinates": [-34.00733895251679, -40.52220738217917]}}, {"type": "Feature", "properties": {"norad_id": 66544, "name": "STARLINK-35728", "group": "last-30-days", "lat": -41.01655214820944, "lon": -31.568831125389053, "alt_km": 397.448424226689, "timestamp": "2025-12-08T08:58:59.557111+00:00", "meta": {"OBJECT_NAME": "STARLINK-35728", "OBJECT_ID": "2025-265AE", "EPOCH": "2025-12-07T22:00:03.000096", "MEAN_MOTION": 15.59426417, "ECCENTRICITY": 0.00012475, "INCLINATION": 43.0005, "RA_OF_ASC_NODE": 82.1695, "ARG_OF_PERICENTER": 277.3736, "MEAN_ANOMALY": 286.5753, "EPHEMERIS_TYPE": 0, "CLASSIFICATION_TYPE": "U", "NORAD_CAT_ID": 66544, "ELEMENT_SET_NO": 999, "REV_AT_EPOCH": 422, "BSTAR": -0.028570142, "MEAN_MOTION_DOT": -0.02032699, "MEAN_MOTION_DDOT": 0}, "tle": {"line1": "1 66544U 25265AE  25341.91670139 -.02032699  00000+0 -28570-1 0  9991", "line2": "2 66544  43.0005  82.1695 0001247 277.3736 286.5753 15.59426417  4227"}}, "geometry": {"type": "Point", "coordinates": [-31.568831125389053, -41.01655214820944]}}, {"type": "Feature", "properties": {"norad_id": 66545, "name": "SHIJIAN-30A", "group": "last-30-days", "lat": -10.333347106419499, "lon": -178.4326399203343, "alt_km": 528.8539424870432, "timestamp": "2025-12-08T08:58:59.557121+00:00", "meta": {"OBJECT_NAME": "SHIJIAN-30A", "OBJECT_ID": "2025-266A", "EPOCH": "2025-12-07T22:38:18.203136", "MEAN_MOTION": 15.15501976, "ECCENTRICITY": 0.00128111, "INCLINATION": 51.7996, "RA_OF_ASC_NODE": 355.332, "ARG_OF_PERICENTER": 339.1198, "MEAN_ANOMALY": 20.9254, "EPHEMERIS_TYPE": 0, "CLASSIFICATION_TYPE": "U", "NORAD_CAT_ID": 66545, "ELEMENT_SET_NO": 999, "REV_AT_EPOCH": 285, "BSTAR": 0.00070193104, "MEAN_MOTION_DOT": 0.000132, "MEAN_MOTION_DDOT": 0}, "tle": {"line1": "1 66545U 25266A   25341.94326624  .00013200  00000+0  70193-3 0  9996", "line2": "2 66545  51.7996 355.3320 0012811 339.1198  20.9254 15.15501976  2850"}}, "geometry": {"type": "Point", "coordinates": [-178.4326399203343, -10.333347106419499]}}, {"type": "Feature", "properties": {"norad_id": 66546, "name": "SHIJIAN-30B", "group": "last-30-days", "lat": -7.228545325397443, "lon": 179.05039806120575, "alt_km": 527.3085723834838, "timestamp": "2025-12-08T08:58:59.557133+00:00", "meta": {"OBJECT_NAME": "SHIJIAN-30B", "OBJECT_ID": "2025-266B", "EPOCH": "2025-12-07T22:39:24.075360", "MEAN_MOTION": 15.155891, "ECCENTRICITY": 0.00104735, "INCLINATION": 51.7979, "RA_OF_ASC_NODE": 355.3344, "ARG_OF_PERICENTER": 342.2163, "MEAN_ANOMALY": 17.8445, "EPHEMERIS_TYPE": 0, "CLASSIFICATION_TYPE": "U", "NORAD_CAT_ID": 66546, "ELEMENT_SET_NO": 999, "REV_AT_EPOCH": 285, "BSTAR": 0.0008137166, "MEAN_MOTION_DOT": 0.00015386, "MEAN_MOTION_DDOT": 0}, "tle": {"line1": "1 66546U 25266B   25341.94402865  .00015386  00000+0  81372-3 0  9997", "line2": "2 66546  51.7979 355.3344 0010473 342.2163  17.8445 15.15589100  2859"}}, "geometry": {"type": "Point", "coordinates": [179.05039806120575, -7.228545325397443]}}, {"type": "Feature", "properties": {"norad_id": 66547, "name": "SHIJIAN-30C", "group": "last-30-days", "lat": -4.302324774175286, "lon": 176.7230193741104, "alt_km": 527.2410228178151, "timestamp": "2025-12-08T08:58:59.557145+00:00", "meta": {"OBJECT_NAME": "SHIJIAN-30C", "OBJECT_ID": "2025-266C", "EPOCH": "2025-12-07T22:40:23.013984", "MEAN_MOTION": 15.15602436, "ECCENTRICITY": 0.00113894, "INCLINATION": 51.7988, "RA_OF_ASC_NODE": 355.34, "ARG_OF_PERICENTER": 334.4511, "MEAN_ANOMALY": 25.5902, "EPHEMERIS_TYPE": 0, "CLASSIFICATION_TYPE": "U", "NORAD_CAT_ID": 66547, "ELEMENT_SET_NO": 999, "REV_AT_EPOCH": 285, "BSTAR": 0.00071923763, "MEAN_MOTION_DOT": 0.00013568, "MEAN_MOTION_DDOT": 0}, "tle": {"line1": "1 66547U 25266C   25341.94471081  .00013568  00000+0  71924-3 0  9996", "line2": "2 66547  51.7988 355.3400 0011389 334.4511  25.5902 15.15602436  2852"}}, "geometry": {"type": "Point", "coordinates": [176.7230193741104, -4.302324774175286]}}, {"type": "Feature", "properties": {"norad_id": 66548, "name": "CZ-2C R/B", "group": "last-30-days", "lat": 51.19831474603637, "lon": 96.0572866234764, "alt_km": 439.00761336053165, "timestamp": "2025-12-08T08:58:59.557156+00:00", "meta": {"OBJECT_NAME": "CZ-2C R/B", "OBJECT_ID": "2025-266D", "EPOCH": "2025-12-07T21:34:43.173120", "MEAN_MOTION": 15.30026539, "ECCENTRICITY": 0.00842443, "INCLINATION": 52.0567, "RA_OF_ASC_NODE": 354.3382, "ARG_OF_PERICENTER": 156.5235, "MEAN_ANOMALY": 203.9632, "EPHEMERIS_TYPE": 0, "CLASSIFICATION_TYPE": "U", "NORAD_CAT_ID": 66548, "ELEMENT_SET_NO": 999, "REV_AT_EPOCH": 287, "BSTAR": 0.00044740656, "MEAN_MOTION_DOT": 0.00014329, "MEAN_MOTION_DDOT": 0}, "tle": {"line1": "1 66548U 25266D   25341.89911080  .00014329  00000+0  44741-3 0  9992", "line2": "2 66548  52.0567 354.3382 0084244 156.5235 203.9632 15.30026539  2879"}}, "geometry": {"type": "Point", "coordinates": [96.0572866234764, 51.19831474603637]}}, {"type": "Feature", "properties": {"norad_id": 66549, "name": "SHIJIAN-28", "group": "last-30-days", "lat": 11.535579215583311, "lon": -35.219792133585706, "alt_km": 15839.398838004083, "timestamp": "2025-12-08T08:58:59.557169+00:00", "meta": {"OBJECT_NAME": "SHIJIAN-28", "OBJECT_ID": "2025-277A", "EPOCH": "2025-11-30T18:06:43.124256", "MEAN_MOTION": 2.28019775, "ECCENTRICITY": 0.7300519, "INCLINATION": 14.4344, "RA_OF_ASC_NODE": 275.4056, "ARG_OF_PERICENTER": 179.5026, "MEAN_ANOMALY": 182.358, "EPHEMERIS_TYPE": 0, "CLASSIFICATION_TYPE": "U", "NORAD_CAT_ID": 66549, "ELEMENT_SET_NO": 999, "REV_AT_EPOCH": 4, "BSTAR": 0.00062085, "MEAN_MOTION_DOT": 6.315e-05, "MEAN_MOTION_DDOT": 0}, "tle": {"line1": "1 66549U 25277A   25334.75466579  .00006315  00000+0  62085-3 0  9997", "line2": "2 66549  14.4344 275.4056 7300519 179.5026 182.3580  2.28019775    48"}}, "geometry": {"type": "Point", "coordinates": [-35.219792133585706, 11.535579215583311]}}]}